[{"OBJECT_NAME":"SAUDISAT 1C (SO-50)","OBJECT_ID":"2002-058C","EPOCH":"2026-03-05T05:36:15.518880","MEAN_MOTION":14.82761915,"ECCENTRICITY":0.00751687,"INCLINATION":64.5518,"RA_OF_ASC_NODE":90.5545,"ARG_OF_PERICENTER":281.5083,"MEAN_ANOMALY":77.7589,"EPHEMERIS_TYPE":0,"CLASSIFICATION_TYPE":"U","NORAD_CAT_ID":27607,"ELEMENT_SET_NO":999,"REV_AT_EPOCH":24904,"BSTAR":0.0003081088,"MEAN_MOTION_DOT":2.468e-5,"MEAN_MOTION_DDOT":0},{"OBJECT_NAME":"SAUDISAT 2","OBJECT_ID":"2004-025F","EPOCH":"2026-03-05T05:41:18.761280","MEAN_MOTION":14.56611915,"ECCENTRICITY":0.00235429,"INCLINATION":98.5496,"RA_OF_ASC_NODE":61.5471,"ARG_OF_PERICENTER":255.4721,"MEAN_ANOMALY":104.3864,"EPHEMERIS_TYPE":0,"CLASSIFICATION_TYPE":"U","NORAD_CAT_ID":28371,"ELEMENT_SET_NO":999,"REV_AT_EPOCH":15061,"BSTAR":0.00012730811,"MEAN_MOTION_DOT":5.2e-6,"MEAN_MOTION_DDOT":0},{"OBJECT_NAME":"SAUDISAT 3","OBJECT_ID":"2007-012B","EPOCH":"2026-03-05T06:44:38.160672","MEAN_MOTION":14.71349005,"ECCENTRICITY":0.00142577,"INCLINATION":98.1344,"RA_OF_ASC_NODE":14.688,"ARG_OF_PERICENTER":192.9544,"MEAN_ANOMALY":167.1299,"EPHEMERIS_TYPE":0,"CLASSIFICATION_TYPE":"U","NORAD_CAT_ID":31118,"ELEMENT_SET_NO":999,"REV_AT_EPOCH":1246,"BSTAR":9.7686145e-5,"MEAN_MOTION_DOT":5.54e-6,"MEAN_MOTION_DDOT":0},{"OBJECT_NAME":"PISAT","OBJECT_ID":"2016-059B","EPOCH":"2026-03-05T06:15:34.656192","MEAN_MOTION":14.68760904,"ECCENTRICITY":0.00291902,"INCLINATION":97.819,"RA_OF_ASC_NODE":69.1947,"ARG_OF_PERICENTER":174.7389,"MEAN_ANOMALY":185.413,"EPHEMERIS_TYPE":0,"CLASSIFICATION_TYPE":"U","NORAD_CAT_ID":41784,"ELEMENT_SET_NO":999,"REV_AT_EPOCH":50448,"BSTAR":0.00027309199,"MEAN_MOTION_DOT":1.555e-5,"MEAN_MOTION_DDOT":0},{"OBJECT_NAME":"FLYING LAPTOP","OBJECT_ID":"2017-042G","EPOCH":"2026-03-05T07:26:29.173632","MEAN_MOTION":15.00481716,"ECCENTRICITY":0.00187264,"INCLINATION":97.4258,"RA_OF_ASC_NODE":224.1793,"ARG_OF_PERICENTER":109.6125,"MEAN_ANOMALY":250.7123,"EPHEMERIS_TYPE":0,"CLASSIFICATION_TYPE":"U","NORAD_CAT_ID":42831,"ELEMENT_SET_NO":999,"REV_AT_EPOCH":47087,"BSTAR":0.0003385778,"MEAN_MOTION_DOT":4.223e-5,"MEAN_MOTION_DDOT":0},{"OBJECT_NAME":"SALSAT","OBJECT_ID":"2020-068K","EPOCH":"2026-03-05T05:17:18.375648","MEAN_MOTION":15.28075718,"ECCENTRICITY":0.00085909,"INCLINATION":97.8851,"RA_OF_ASC_NODE":61.0911,"ARG_OF_PERICENTER":315.6003,"MEAN_ANOMALY":44.4545,"EPHEMERIS_TYPE":0,"CLASSIFICATION_TYPE":"U","NORAD_CAT_ID":46495,"ELEMENT_SET_NO":999,"REV_AT_EPOCH":29947,"BSTAR":0.00043320384,"MEAN_MOTION_DOT":0.00011798,"MEAN_MOTION_DDOT":0}]
