SAUDISAT 1C (SO-50)     
1 27607U 02058C   26064.23351295  .00002468  00000+0  30811-3 0  9990
2 27607  64.5518  90.5545 0075168 281.5083  77.7589 14.82761915249041
SAUDISAT 2              
1 28371U 04025F   26064.23702270  .00000520  00000+0  12731-3 0  9996
2 28371  98.5496  61.5471 0023542 255.4721 104.3864 14.56611915150618
SAUDISAT 3              
1 31118U 07012B   26064.28099723  .00000554  00000+0  97686-4 0  9995
2 31118  98.1344  14.6880 0014257 192.9544 167.1299 14.71349005 12467
PISAT                   
1 41784U 16059B   26064.26081778  .00001555  00000+0  27309-3 0  9991
2 41784  97.8190  69.1947 0029190 174.7389 185.4130 14.68760904504484
FLYING LAPTOP           
1 42831U 17042G   26064.31005988  .00004223  00000+0  33858-3 0  9994
2 42831  97.4258 224.1793 0018726 109.6125 250.7123 15.00481716470870
SALSAT                  
1 46495U 20068K   26064.22035157  .00011798  00000+0  43320-3 0  9997
2 46495  97.8851  61.0911 0008590 315.6003  44.4545 15.28075718299477
